{
  "type": "FeatureCollection",
  "features": [
    {
      "type": "Feature",
      "properties": {
        "norad_id": 32376,
        "name": "COSMO-SKYMED 2",
        "group": "resource",
        "lat": -79.43720978277283,
        "lon": -147.4108627543776,
        "alt_km": 630.9083788753587,
        "timestamp": "2025-12-09T05:43:20.384339+00:00",
        "meta_object_name": "COSMO-SKYMED 2",
        "meta_object_id": "2007-059A",
        "meta_epoch": "2025-12-08T20:22:28.968960",
        "meta_mean_motion": 14.82159516,
        "meta_eccentricity": 0.0001531,
        "meta_inclination": 97.8812,
        "meta_ra_of_asc_node": 164.2313,
        "meta_arg_of_pericenter": 85.9959,
        "meta_mean_anomaly": 274.1429,
        "meta_ephemeris_type": 0,
        "meta_classification_type": "U",
        "meta_norad_cat_id": 32376,
        "meta_element_set_no": 999,
        "meta_rev_at_epoch": 97380,
        "meta_bstar": 0.00014905,
        "meta_mean_motion_dot": 1.135e-05,
        "meta_mean_motion_ddot": 0,
        "tle_line1": "1 32376U 07059A   25342.84894640  .00001135  00000+0  14905-3 0  9992",
        "tle_line2": "2 32376  97.8812 164.2313 0001531  85.9959 274.1429 14.82159516973801"
      },
      "geometry": {
        "type": "Point",
        "coordinates": [
          -147.4108627543776,
          -79.43720978277283
        ]
      }
    },
    {
      "type": "Feature",
      "properties": {
        "norad_id": 32382,
        "name": "RADARSAT-2",
        "group": "resource",
        "lat": 17.09345590935828,
        "lon": 170.5397762062545,
        "alt_km": 792.0627174826159,
        "timestamp": "2025-12-09T05:43:20.384356+00:00",
        "meta_object_name": "RADARSAT-2",
        "meta_object_id": "2007-061A",
        "meta_epoch": "2025-12-08T20:34:04.933920",
        "meta_mean_motion": 14.29985392,
        "meta_eccentricity": 0.0001087,
        "meta_inclination": 98.5793,
        "meta_ra_of_asc_node": 347.5031,
        "meta_arg_of_pericenter": 87.4513,
        "meta_mean_anomaly": 272.6794,
        "meta_ephemeris_type": 0,
        "meta_classification_type": "U",
        "meta_norad_cat_id": 32382,
        "meta_element_set_no": 999,
        "meta_rev_at_epoch": 93875,
        "meta_bstar": 4.0302e-05,
        "meta_mean_motion_dot": 6e-07,
        "meta_mean_motion_ddot": 0,
        "tle_line1": "1 32382U 07061A   25342.85700155  .00000060  00000+0  40302-4 0  9997",
        "tle_line2": "2 32382  98.5793 347.5031 0001087  87.4513 272.6794 14.29985392938759"
      },
      "geometry": {
        "type": "Point",
        "coordinates": [
          170.5397762062545,
          17.09345590935828
        ]
      }
    },
    {
      "type": "Feature",
      "properties": {
        "norad_id": 32783,
        "name": "CARTOSAT-2A",
        "group": "resource",
        "lat": 79.1368368223774,
        "lon": -101.29511179797151,
        "alt_km": 624.1699673019311,
        "timestamp": "2025-12-09T05:43:20.384368+00:00",
        "meta_object_name": "CARTOSAT-2A",
        "meta_object_id": "2008-021A",
        "meta_epoch": "2025-12-08T21:09:52.647840",
        "meta_mean_motion": 14.789242,
        "meta_eccentricity": 0.0012238,
        "meta_inclination": 97.7932,
        "meta_ra_of_asc_node": 32.8257,
        "meta_arg_of_pericenter": 16.7055,
        "meta_mean_anomaly": 343.4558,
        "meta_ephemeris_type": 0,
        "meta_classification_type": "U",
        "meta_norad_cat_id": 32783,
        "meta_element_set_no": 999,
        "meta_rev_at_epoch": 95067,
        "meta_bstar": 0.00011232,
        "meta_mean_motion_dot": 7.79e-06,
        "meta_mean_motion_ddot": 0,
        "tle_line1": "1 32783U 08021A   25342.88185935  .00000779  00000+0  11232-3 0  9991",
        "tle_line2": "2 32783  97.7932  32.8257 0012238  16.7055 343.4558 14.78924200950675"
      },
      "geometry": {
        "type": "Point",
        "coordinates": [
          -101.29511179797151,
          79.1368368223774
        ]
      }
    },
    {
      "type": "Feature",
      "properties": {
        "norad_id": 33320,
        "name": "HUANJING 1A (HJ-1A)",
        "group": "resource",
        "lat": -81.6473298232544,
        "lon": 85.34925303074236,
        "alt_km": 636.731874471342,
        "timestamp": "2025-12-09T05:43:20.384379+00:00",
        "meta_object_name": "HUANJING 1A (HJ-1A)",
        "meta_object_id": "2008-041A",
        "meta_epoch": "2025-12-08T20:25:45.066720",
        "meta_mean_motion": 14.83375132,
        "meta_eccentricity": 0.002037,
        "meta_inclination": 97.6538,
        "meta_ra_of_asc_node": 331.3118,
        "meta_arg_of_pericenter": 46.5497,
        "meta_mean_anomaly": 313.7408,
        "meta_ephemeris_type": 0,
        "meta_classification_type": "U",
        "meta_norad_cat_id": 33320,
        "meta_element_set_no": 999,
        "meta_rev_at_epoch": 93018,
        "meta_bstar": 0.00035082,
        "meta_mean_motion_dot": 2.836e-05,
        "meta_mean_motion_ddot": 0,
        "tle_line1": "1 33320U 08041A   25342.85121605  .00002836  00000+0  35082-3 0  9997",
        "tle_line2": "2 33320  97.6538 331.3118 0020370  46.5497 313.7408 14.83375132930182"
      },
      "geometry": {
        "type": "Point",
        "coordinates": [
          85.34925303074236,
          -81.6473298232544
        ]
      }
    },
    {
      "type": "Feature",
      "properties": {
        "norad_id": 33321,
        "name": "HUANJING 1B (HJ-1B)",
        "group": "resource",
        "lat": 43.984511429425986,
        "lon": 162.83224847195197,
        "alt_km": 599.0784800956471,
        "timestamp": "2025-12-09T05:43:20.384390+00:00",
        "meta_object_name": "HUANJING 1B (HJ-1B)",
        "meta_object_id": "2008-041B",
        "meta_epoch": "2025-12-08T21:01:09.424992",
        "meta_mean_motion": 14.82805494,
        "meta_eccentricity": 0.0038228,
        "meta_inclination": 97.6395,
        "meta_ra_of_asc_node": 335.0424,
        "meta_arg_of_pericenter": 87.9351,
        "meta_mean_anomaly": 272.6241,
        "meta_ephemeris_type": 0,
        "meta_classification_type": "U",
        "meta_norad_cat_id": 33321,
        "meta_element_set_no": 999,
        "meta_rev_at_epoch": 93020,
        "meta_bstar": 0.00024812,
        "meta_mean_motion_dot": 1.981e-05,
        "meta_mean_motion_ddot": 0,
        "tle_line1": "1 33321U 08041B   25342.87580353  .00001981  00000+0  24812-3 0  9998",
        "tle_line2": "2 33321  97.6395 335.0424 0038228  87.9351 272.6241 14.82805494930203"
      },
      "geometry": {
        "type": "Point",
        "coordinates": [
          162.83224847195197,
          43.984511429425986
        ]
      }
    },
    {
      "type": "Feature",
      "properties": {
        "norad_id": 33331,
        "name": "GEOEYE 1",
        "group": "resource",
        "lat": -12.170897178975412,
        "lon": 56.328663354231345,
        "alt_km": 680.9962765100245,
        "timestamp": "2025-12-09T05:43:20.384401+00:00",
        "meta_object_name": "GEOEYE 1",
        "meta_object_id": "2008-042A",
        "meta_epoch": "2025-12-08T18:18:08.512128",
        "meta_mean_motion": 14.6480519,
        "meta_eccentricity": 0.0002788,
        "meta_inclination": 98.1256,
        "meta_ra_of_asc_node": 54.093,
        "meta_arg_of_pericenter": 294.4872,
        "meta_mean_anomaly": 65.604,
        "meta_ephemeris_type": 0,
        "meta_classification_type": "U",
        "meta_norad_cat_id": 33331,
        "meta_element_set_no": 999,
        "meta_rev_at_epoch": 92227,
        "meta_bstar": 0.00024192,
        "meta_mean_motion_dot": 1.243e-05,
        "meta_mean_motion_ddot": 0,
        "tle_line1": "1 33331U 08042A   25342.76259852  .00001243  00000+0  24192-3 0  9997",
        "tle_line2": "2 33331  98.1256  54.0930 0002788 294.4872  65.6040 14.64805190922279"
      },
      "geometry": {
        "type": "Point",
        "coordinates": [
          56.328663354231345,
          -12.170897178975412
        ]
      }
    },
    {
      "type": "Feature",
      "properties": {
        "norad_id": 33396,
        "name": "THEOS",
        "group": "resource",
        "lat": 46.50318491921561,
        "lon": 32.26819476069422,
        "alt_km": 820.3578200079328,
        "timestamp": "2025-12-09T05:43:20.384412+00:00",
        "meta_object_name": "THEOS",
        "meta_object_id": "2008-049A",
        "meta_epoch": "2025-12-08T19:21:17.882208",
        "meta_mean_motion": 14.20094325,
        "meta_eccentricity": 0.0001127,
        "meta_inclination": 98.5869,
        "meta_ra_of_asc_node": 41.0119,
        "meta_arg_of_pericenter": 94.7652,
        "meta_mean_anomaly": 265.3653,
        "meta_ephemeris_type": 0,
        "meta_classification_type": "U",
        "meta_norad_cat_id": 33396,
        "meta_element_set_no": 999,
        "meta_rev_at_epoch": 89094,
        "meta_bstar": 1.7403e-05,
        "meta_mean_motion_dot": -6e-08,
        "meta_mean_motion_ddot": 0,
        "tle_line1": "1 33396U 08049A   25342.80645697 -.00000006  00000+0  17403-4 0  9991",
        "tle_line2": "2 33396  98.5869  41.0119 0001127  94.7652 265.3653 14.20094325890941"
      },
      "geometry": {
        "type": "Point",
        "coordinates": [
          32.26819476069422,
          46.50318491921561
        ]
      }
    }
  ]
}